{
    "links": {
        "self": "http://www.neowsapp.com/rest/v1/neo/3792439?api_key=iIulBulltgU6a56xZRHN4H3l9WmuAYTsLGpBGhQ2"
    },
    "id": "3792439",
    "neo_reference_id": "3792439",
    "name": "(2017 XV61)",
    "designation": "2017 XV61",
    "nasa_jpl_url": "http://ssd.jpl.nasa.gov/sbdb.cgi?sstr=3792439",
    "absolute_magnitude_h": 25.3,
    "estimated_diameter": {
        "kilometers": {
            "estimated_diameter_min": 0.0231502122,
            "estimated_diameter_max": 0.0517654482
        },
        "meters": {
            "estimated_diameter_min": 23.150212221,
            "estimated_diameter_max": 51.7654482198
        },
        "miles": {
            "estimated_diameter_min": 0.0143848705,
            "estimated_diameter_max": 0.0321655483
        },
        "feet": {
            "estimated_diameter_min": 75.9521422633,
            "estimated_diameter_max": 169.8341531374
        }
    },
    "is_potentially_hazardous_asteroid": false,
    "close_approach_data": [
        {
            "close_approach_date": "2017-12-19",
            "close_approach_date_full": "2017-Dec-19 04:20",
            "epoch_date_close_approach": 1513657200000,
            "relative_velocity": {
                "kilometers_per_second": "19.0647385322",
                "kilometers_per_hour": "68633.0587159402",
                "miles_per_hour": "42645.9136226907"
            },
            "miss_distance": {
                "astronomical": "0.0874617015",
                "lunar": "34.0226018835",
                "kilometers": "13084084.250975805",
                "miles": "8130072.957063909"
            },
            "orbiting_body": "Earth"
        },
        {
            "close_approach_date": "2018-05-23",
            "close_approach_date_full": "2018-May-23 12:09",
            "epoch_date_close_approach": 1527077340000,
            "relative_velocity": {
                "kilometers_per_second": "16.5110742203",
                "kilometers_per_hour": "59439.867193174",
                "miles_per_hour": "36933.6219234475"
            },
            "miss_distance": {
                "astronomical": "0.4502872108",
                "lunar": "175.1617250012",
                "kilometers": "67362007.623920996",
                "miles": "41856810.6114059048"
            },
            "orbiting_body": "Earth"
        }
    ],
    "orbital_data": {
        "orbit_id": "1",
        "orbit_determination_date": "2017-12-17 11:12:02",
        "first_observation_date": "2017-12-15",
        "last_observation_date": "2017-12-17",
        "data_arc_in_days": 2,
        "observations_used": 25,
        "orbit_uncertainty": "8",
        "minimum_orbit_intersection": ".0811808",
        "jupiter_tisserand_invariant": "4.279",
        "epoch_osculation": "2458103.5",
        "eccentricity": ".384570794998937",
        "semi_major_axis": "1.511003598167018",
        "inclination": "32.86556406286024",
        "ascending_node_longitude": "263.027946374224",
        "orbital_period": "678.416925929651",
        "perihelion_distance": ".9299157431736734",
        "perihelion_argument": "239.1406082728779",
        "aphelion_distance": "2.092091453160362",
        "perihelion_time": "2458154.328507978831",
        "mean_anomaly": "333.0279977208638",
        "mean_motion": ".5306471378300053",
        "equinox": "J2000",
        "orbit_class": {
            "orbit_class_type": "APO",
            "orbit_class_description": "Near-Earth asteroid orbits which cross the Earth’s orbit similar to that of 1862 Apollo",
            "orbit_class_range": "a (semi-major axis) > 1.0 AU; q (perihelion) < 1.017 AU"
        }
    },
    "is_sentry_object": false
}